STARLINK-2587           
1 48399U 21038AY  22291.84721207  .00007359  00000+0  51305-3 0  9994
2 48399  53.0535 138.5111 0001725 100.4344 259.6839 15.06351345 81944
STARLINK-2576           
1 48400U 21038AZ  22291.57813576  .00003514  00000+0  25472-3 0  9993
2 48400  53.0532 139.7269 0001257 103.3013 256.8116 15.06397434 80693
STARLINK-2571           
1 48401U 21038BA  22291.88038393 -.00000938  00000+0 -44088-4 0  9998
2 48401  53.0545 138.3792 0001396 102.3185 257.7961 15.06386826 80733
STARLINK-2560           
1 48402U 21038BB  22291.57350567  .00002979  00000+0  21883-3 0  9997
2 48402  53.0551 139.7411 0001303  92.8494 267.2644 15.06388833 80697
STARLINK-2561           
1 48403U 21038BC  22291.57076836  .00007162  00000+0  49916-3 0  9998
2 48403  53.0514 139.7567 0001406 109.1105 251.0037 15.06401730 80693
STARLINK-2593           
1 48404U 21038BD  22291.69977259  .00000311  00000+0  39818-4 0  9991
2 48404  53.0527 139.1835 0001428 113.4939 246.6201 15.06381237 80712
STARLINK-2570           
1 48405U 21038BE  22291.29799876  .00000156  00000+0  29356-4 0  9998
2 48405  53.0534 140.9656 0001329  81.9320 278.1820 15.06391380 80655
STARLINK-2568           
1 48406U 21038BF  22291.62605104  .00015981  00000+0  10918-2 0  9990
2 48406  53.0547 139.5154 0001619 106.5681 253.5486 15.06314845 80705
STARLINK-2595           
1 48407U 21038BG  22291.75505867  .00000060  00000+0  22945-4 0  9997
2 48407  53.0548 138.9175 0001224  89.4448 270.6682 15.06391190 80712
STARLINK-2592           
1 48408U 21038BH  22291.88406870 -.00001224  00000+0 -63291-4 0  9990
2 48408  53.0538 138.3569 0001384 128.9065 231.2047 15.06388312 80736
STARLINK-2596           
1 48409U 21038BJ  22291.31043547  .00000352  00000+0  42538-4 0  9997
2 48409  53.0546 145.9328 0001214  97.0353 263.0774 15.06393304 80592
STARLINK-2563           
1 48410U 21038BK  22291.71312489  .00001039  00000+0  88654-4 0  9999
2 48410  53.0546  94.1216 0001270  90.1142 269.9993 15.06396731 81357
STARLINK-2505           
1 48411U 21038BL  22291.73017551 -.00000564  00000+0 -19007-4 0  9994
2 48411  53.0561  89.0450 0001349 100.3756 259.7385 15.06386246 81420
STARLINK-2581           
1 48412U 21038BM  22291.54962068 -.00000350  00000+0 -45942-5 0  9997
2 48412  53.0553  90.2850 0001337 121.8630 238.2489 15.06389479 81390
YAOGAN-30 X             
1 48423U 21039A   22291.83044926  .00002619  00000+0  26353-3 0  9997
2 48423  35.0001 184.9245 0005903 337.5348  22.5075 14.90856842 79100
YAOGAN-30 Y             
1 48424U 21039B   22291.80824799  .00002743  00000+0  27583-3 0  9993
2 48424  34.9979 184.6755 0004330  98.0958 262.0213 14.90864425 79106
YAOGAN-30 Z             
1 48425U 21039C   22291.78532701  .00002715  00000+0  27314-3 0  9991
2 48425  34.9978 184.4905 0003442 352.7097   7.3535 14.90861245 79113
TIANQI-12               
1 48426U 21039D   22291.81206159  .00003945  00000+0  38036-3 0  9990
2 48426  35.0057 177.5604 0004171 142.7131 217.3832 14.92413044 79169
STARLINK-2461           
1 48428U 21040A   22291.55739258 -.00000693  00000+0 -27629-4 0  9992
2 48428  53.0549 344.8246 0002045  49.5822 310.5345 15.06394669 79945
STARLINK-2749           
1 48429U 21040B   22291.46063880 -.00001271  00000+0 -66376-4 0  9999
2 48429  53.0551 315.2551 0002801  57.1821 302.9438 15.06410615 80348
STARLINK-2729           
1 48430U 21040C   22291.75825874  .00000436  00000+0  48221-4 0  9991
2 48430  53.0532 313.9195 0002190  28.2952 331.8156 15.06389035 80397
STARLINK-2700           
1 48431U 21040D   22291.77161395  .00001754  00000+0  13662-3 0  9999
2 48431  53.0554 308.8583 0002022  45.6756 314.4398 15.06395041 80462
STARLINK-2680           
1 48432U 21040E   22291.75279813  .00001293  00000+0  10569-3 0  9994
2 48432  53.0553 304.3330 0001841  55.2806 304.8356 15.06397761 80529
STARLINK-2699           
1 48433U 21040F   22291.76522689  .00000658  00000+0  63070-4 0  9998
2 48433  53.0547 309.1692 0001905  46.2886 313.8261 15.06395805 80450
STARLINK-2692           
1 48434U 21040G   22291.46439596  .00003112  00000+0  22778-3 0  9997
2 48434  53.0553 315.7494 0001654  56.9663 303.1485 15.06391901 80793
STARLINK-2633           
1 48435U 21040H   22291.47079003  .00002497  00000+0  18656-3 0  9997
2 48435  53.0553 325.2209 0002228  50.5520 309.5666 15.06383917 80209
STARLINK-2639           
1 48436U 21040J   22291.85826115  .00006395  00000+0  44772-3 0  9993
2 48436  53.0540 338.4709 0002152  36.7311 323.3826 15.06408779 80056
STARLINK-2642           
1 48437U 21040K   22291.44452197  .00000789  00000+0  71937-4 0  9999
2 48437  53.0572 350.3295 0001713  35.3528 324.7574 15.06376480 81130
STARLINK-2640           
1 48438U 21040L   22291.85458592  .00000692  00000+0  65390-4 0  9999
2 48438  53.0558 338.4733 0002280  42.8038 317.3128 15.06386178 80056
STARLINK-2583           
1 48439U 21040M   22291.85089327  .00007059  00000+0  49218-3 0  9990
2 48439  53.0537 338.4897 0001783  43.9580 316.1550 15.06408496 80050
STARLINK-2682           
1 48440U 21040N   22291.84720805  .00002241  00000+0  16937-3 0  9994
2 48440  53.0550 338.5066 0001967  44.5930 315.5217 15.06390490 80053
STARLINK-2702           
1 48441U 21040P   22291.84352843  .00006861  00000+0  47891-3 0  9993
2 48441  53.0534 338.5153 0002285  41.2016 318.9145 15.06408798 80054
STARLINK-2644           
1 48442U 21040Q   22291.83983837  .00000234  00000+0  34633-4 0  9995
2 48442  53.0558 338.5564 0001997  44.1938 315.9210 15.06390847 80056
STARLINK-2663           
1 48443U 21040R   22291.83615363  .00001796  00000+0  13943-3 0  9996
2 48443  53.0540 338.5719 0001885  48.7447 311.3704 15.06398607 80051
STARLINK-2645           
1 48444U 21040S   22291.50072685  .00005104  00000+0  36124-3 0  9998
2 48444  53.0553 340.0729 0001904  42.3098 317.8037 15.06404789 80003
STARLINK-2634           
1 48445U 21040T   22291.82877727  .00005216  00000+0  36872-3 0  9998
2 48445  53.0544 338.5989 0002136  37.5737 322.5401 15.06408490 80054
STARLINK-2247           
1 48446U 21040U   22291.82509295  .00002041  00000+0  15598-3 0  9996
2 48446  53.0540 338.6251 0002255  31.2667 328.8456 15.06386517 80053
STARLINK-2269           
1 48447U 21040V   22291.35697868  .00007170  00000+0  50004-3 0  9998
2 48447  53.0568 340.7216 0001647  41.2010 318.9103 15.06380229 79989
STARLINK-2632           
1 48448U 21040W   22291.51451959  .00000528  00000+0  54396-4 0  9995
2 48448  53.0546 340.0113 0002084  30.3464 329.7645 15.06391044 81276
STARLINK-2655           
1 48449U 21040X   22291.48598103  .00000391  00000+0  45177-4 0  9990
2 48449  53.0545 340.1419 0002176  44.9150 315.2015 15.06395958 80000
STARLINK-2660           
1 48450U 21040Y   22291.34960340  .00001212  00000+0  10030-3 0  9995
2 48450  53.0557 340.7484 0002303  38.3705 321.7448 15.06395070 79980
STARLINK-2652           
1 48451U 21040Z   22291.54769803  .00000021  00000+0  20294-4 0  9990
2 48451  53.0559 339.8950 0001709  48.7182 311.3954 15.06398779 80015
STARLINK-2703           
1 48452U 21040AA  22291.54495236  .00000717  00000+0  67061-4 0  9992
2 48452  53.0554 339.8444 0001989  44.6237 315.4912 15.06388216 80019
STARLINK-2620           
1 48453U 21040AB  22291.87301095  .00001893  00000+0  14600-3 0  9994
2 48453  53.0555 338.4095 0002012  37.5133 322.5996 15.06393782 80062
STARLINK-2654           
1 48454U 21040AC  22291.86932938  .00000854  00000+0  76275-4 0  9993
2 48454  53.0549 338.4147 0001766  43.1026 317.0101 15.06388601 80064
STARLINK-2497           
1 48455U 21040AD  22291.86563053  .00001780  00000+0  13838-3 0  9996
2 48455  53.0570 338.4321 0002375  41.4032 318.7137 15.06392704 80053
STARLINK-2508           
1 48456U 21040AE  22291.86195664  .00004261  00000+0  30482-3 0  9997
2 48456  53.0549 338.4517 0002044  38.2295 321.8838 15.06396537 80056
STARLINK-2698           
1 48458U 21040AG  22291.87440161  .00001731  00000+0  13512-3 0  9999
2 48458  53.0549 343.4848 0001843  47.0610 313.0533 15.06389993 80701
STARLINK-2579           
1 48459U 21040AH  22291.86706130  .00000987  00000+0  85168-4 0  9999
2 48459  53.0545 343.7770 0002392  33.7501 326.3640 15.06397055 79999
STARLINK-2582           
1 48460U 21040AJ  22291.88543739 -.00005249  00000+0 -33350-3 0  9990
2 48460  53.0566 343.3495 0002096  38.4591 321.6547 15.06424980 80507
STARLINK-2693           
1 48461U 21040AK  22291.50212830  .00002863  00000+0  21114-3 0  9997
2 48461  53.0560 345.0735 0001713  43.1880 316.9243 15.06377132 79949
STARLINK-2683           
1 48462U 21040AL  22291.88318205  .00002470  00000+0  18470-3 0  9997
2 48462  53.0565 348.6238 0002013  51.3752 308.7417 15.06392733 79929
STARLINK-2689           
1 48463U 21040AM  22291.42513394  .00004273  00000+0  30555-3 0  9995
2 48463  53.0546 350.4194 0001901  47.7910 312.3240 15.06404538 79866
STARLINK-2686           
1 48464U 21040AN  22291.86840221  .00001009  00000+0  86664-4 0  9993
2 48464  53.0556 348.4271 0002064  49.3719 310.7450 15.06389972 79923
STARLINK-2681           
1 48465U 21040AP  22291.87946217  .00010395  00000+0  71541-3 0  9992
2 48465  53.0540 348.3598 0002107  47.6004 312.5163 15.06415146 79939
STARLINK-2687           
1 48466U 21040AQ  22291.86471827  .00005741  00000+0  40396-3 0  9995
2 48466  53.0552 348.4346 0002112  39.1431 320.9710 15.06405771 79935
STARLINK-2659           
1 48467U 21040AR  22291.42609369  .00000647  00000+0  62388-4 0  9998
2 48467  53.0560 350.4099 0002359  46.7348 313.3838 15.06386013 79863
STARLINK-2685           
1 48468U 21040AS  22291.60670440 -.00000507  00000+0 -15167-4 0  9997
2 48468  53.0562 349.6026 0001763  45.4150 314.6982 15.06387817 79891
STARLINK-2661           
1 48469U 21040AT  22291.55510078  .00004271  00000+0  30537-3 0  9999
2 48469  53.0554 349.8147 0001625  56.7013 303.4132 15.06405769 79888
